OBJECT_NAME,OBJECT_ID,EPOCH,MEAN_MOTION,ECCENTRICITY,INCLINATION,RA_OF_ASC_NODE,ARG_OF_PERICENTER,MEAN_ANOMALY,EPHEMERIS_TYPE,CLASSIFICATION_TYPE,NORAD_CAT_ID,ELEMENT_SET_NO,REV_AT_EPOCH,BSTAR,MEAN_MOTION_DOT,MEAN_MOTION_DDOT
OCEANSAT-2,2009-051A,2026-06-07T13:10:30.861120,13.99663800,.0014606,98.2330,146.3619,265.5691,94.3806,0,U,35931,999,87798,.1121E-3,.126E-5,0
WORLDVIEW-2 (WV-2),2009-055A,2026-06-07T11:47:30.702912,14.37896667,.0003226,98.4737,232.0744,243.6950,116.3906,0,U,35946,999,87425,.59362E-4,.136E-5,0
SMOS,2009-059A,2026-06-06T11:41:32.734752,14.39766844,.00013403,98.4426,344.9790,91.3547,268.7794,0,U,36036,999,87191,.99006893E-4,.267E-5,0
YAOGAN-7,2009-069A,2026-06-07T09:47:08.123424,14.78000284,.002596,98.0083,44.3347,71.8498,288.5536,0,U,36110,999,88818,.88836E-4,.591E-5,0
TANDEM-X,2010-030A,2026-06-06T10:55:28.703712,15.19152152,.0001794,97.4458,165.3146,98.1824,261.9614,0,U,36605,999,88501,.44865E-4,.875E-5,0
CARTOSAT-2B,2010-035A,2026-06-07T12:39:37.490400,14.78650624,.0010379,97.9953,209.1385,217.0729,142.9766,0,U,36795,999,85842,.12817E-3,.887E-5,0
YAOGAN-10,2010-038A,2026-06-07T12:38:48.214752,14.85323527,.0001722,97.8980,182.0090,87.2182,33.9339,0,U,36834,999,85577,.31763E-3,.2677E-4,0
COSMO-SKYMED 4,2010-060A,2026-06-07T12:28:20.574048,14.82160430,.0001402,97.8887,342.2595,82.6027,277.5346,0,U,37216,999,84313,.28995E-4,.179E-5,0
RESOURCESAT-2,2011-015A,2026-06-07T10:43:04.898208,14.21604484,.0010138,98.7645,225.9553,287.0009,73.0057,0,U,37387,999,78479,.63858E-4,.96E-6,0
HAIYANG-2A,2011-043A,2026-06-07T12:03:25.931808,13.74549699,.0006264,99.3396,161.3920,110.5323,249.6499,0,U,37781,999,74532,.14931E-5,-.42E-6,0
RASAT,2011-044D,2026-06-07T12:16:08.189760,14.68157601,.0019482,98.0570,250.0559,220.5433,261.7577,0,U,37791,999,79176,.10385E-3,.55E-5,0
SRMSAT,2011-058D,2026-06-06T06:31:30.735264,14.11573396,.00119474,19.9704,125.5359,84.3565,18.6414,0,U,37841,999,75627,.65061068E-4,.385E-5,0
PLEIADES 1A,2011-076F,2026-06-07T12:47:56.187744,14.58565441,.0001502,98.1972,233.7654,97.0748,26.5702,0,U,38012,999,77058,.89212E-4,.369E-5,0
ZIYUAN 1-02C (ZY 1-02C),2011-079A,2026-06-07T13:16:36.512832,14.38207201,.0006146,98.4069,226.0628,348.6814,119.0451,0,U,38038,999,75782,.14296E-3,.391E-5,0
ARIRANG-3 (KOMPSAT-3),2012-025B,2026-06-07T12:29:59.704224,14.62198087,.000625,98.1172,116.1479,134.2565,225.9150,0,U,38338,999,74993,.11467E-3,.531E-5,0
EXACTVIEW-1 (ADS-1B),2012-039C,2026-06-07T06:29:02.421024,14.24981780,.0010623,98.9766,275.4370,194.6885,165.3986,0,U,38709,999,72129,.84988E-4,.152E-5,0
SPOT 6,2012-047A,2026-06-07T12:36:02.916000,14.58557689,.0001443,98.2116,225.9467,93.2194,266.9170,0,U,38755,999,73164,.88318E-4,.365E-5,0
PLEIADES 1B,2012-068A,2026-06-07T11:24:28.626912,14.58555035,.000157,98.1942,233.6605,95.4018,264.7361,0,U,39019,999,71943,.90206E-4,.374E-5,0
GOKTURK 2,2012-073A,2026-06-07T12:27:32.749920,14.75534117,.0001933,97.6825,356.4349,61.5378,298.6027,0,U,39030,999,72308,.12313E-3,.791E-5,0
LANDSAT 8,2013-008A,2026-06-07T11:30:37.067616,14.57112520,.0001468,98.2302,228.7298,96.2737,263.8628,0,U,39084,999,69648,.93521E-4,.376E-5,0
SARAL,2013-009A,2026-06-07T08:01:35.583168,14.32853577,.0001265,98.5558,345.0267,355.1833,4.9339,0,U,39086,999,69419,.52384E-4,.99E-6,0
GAOFEN-1,2013-018A,2026-06-07T12:11:14.461728,14.76526497,.0015937,97.9092,230.7722,300.7246,59.2394,0,U,39150,999,70681,.45466E-4,.266E-5,0
VNREDSAT 1,2013-021B,2026-06-07T12:37:25.903200,14.64847337,.0001682,97.9080,212.3129,89.9085,270.2311,0,U,39160,999,69887,.1312E-3,.655E-5,0
ARIRANG-5 (KOMPSAT-5),2013-042A,2026-06-07T12:32:02.502816,15.04554401,.0004091,97.6214,345.3583,145.3924,214.7569,0,U,39227,999,70240,.14072E-3,.1912E-4,0
SKYSAT-A,2013-066C,2026-06-07T09:40:00.572160,15.12923192,.0021029,97.3821,208.1118,352.7974,7.2952,0,U,39418,999,68700,.20054E-3,.3486E-4,0
DUBAISAT-2,2013-066D,2026-06-07T12:42:09.594144,15.10107552,.0012879,97.4563,148.9276,69.6102,290.6509,0,U,39419,999,68493,.25488E-3,.4098E-4,0
GPM-CORE,2014-009C,2026-06-07T01:05:47.635872,15.45426738,.0012061,64.9731,342.1053,269.6323,90.3436,0,U,39574,999,69624,.15877E-3,.7403E-4,0
SENTINEL-1A,2014-016A,2026-06-07T13:28:58.349280,14.59199828,.0001431,98.1782,166.2351,79.6656,280.4705,0,U,39634,999,64861,.26392E-4,.79E-6,0
KAZEOSAT 1,2014-024A,2026-06-07T12:23:01.397760,14.42076685,.0001494,98.3202,231.2034,74.9998,285.1357,0,U,39731,999,63716,.8484E-4,.236E-5,0
ALOS-2,2014-029A,2026-06-07T12:50:49.932096,14.79469439,.0001668,97.9210,255.8375,90.1419,269.9984,0,U,39766,999,65015,.20312E-3,.1466E-4,0
KAZEOSAT 2,2014-033A,2026-06-07T12:43:22.302336,14.85461684,.000882,97.5413,358.6520,2.3815,357.7441,0,U,40010,999,64752,.14748E-3,.1222E-4,0
