OCEANSAT-2              
1 35931U 09051A   26158.54896830  .00000126  00000+0  11210-3 0  9997
2 35931  98.2330 146.3619 0014606 265.5691  94.3806 13.99663800877983
WORLDVIEW-2 (WV-2)      
1 35946U 09055A   26158.49132758  .00000136  00000+0  59362-4 0  9995
2 35946  98.4737 232.0744 0003226 243.6950 116.3906 14.37896667874250
SMOS                    
1 36036U 09059A   26157.48718443  .00000267  00000+0  99007-4 0  9994
2 36036  98.4426 344.9790 0001340  91.3547 268.7794 14.39766844871917
YAOGAN-7                
1 36110U 09069A   26158.40773291  .00000591  00000+0  88836-4 0  9991
2 36110  98.0083  44.3347 0025960  71.8498 288.5536 14.78000284888189
TANDEM-X                
1 36605U 10030A   26157.45519333  .00000875  00000+0  44865-4 0  9998
2 36605  97.4458 165.3146 0001794  98.1824 261.9614 15.19152152885011
CARTOSAT-2B             
1 36795U 10035A   26158.52751725  .00000887  00000+0  12817-3 0  9999
2 36795  97.9953 209.1385 0010379 217.0729 142.9766 14.78650624858425
YAOGAN-10               
1 36834U 10038A   26158.52694693  .00002677  00000+0  31763-3 0  9996
2 36834  97.8980 182.0090 0001722  87.2182  33.9339 14.85323527855779
COSMO-SKYMED 4          
1 37216U 10060A   26158.51968257  .00000179  00000+0  28995-4 0  9994
2 37216  97.8887 342.2595 0001402  82.6027 277.5346 14.82160430843132
RESOURCESAT-2           
1 37387U 11015A   26158.44658447  .00000096  00000+0  63858-4 0  9998
2 37387  98.7645 225.9553 0010138 287.0009  73.0057 14.21604484784790
HAIYANG-2A              
1 37781U 11043A   26158.50238347 -.00000042  00000+0  14931-5 0  9998
2 37781  99.3396 161.3920 0006264 110.5323 249.6499 13.74549699745323
RASAT                   
1 37791U 11044D   26158.51120590  .00000550  00000+0  10385-3 0  9991
2 37791  98.0570 250.0559 0019482 220.5433 261.7577 14.68157601791761
SRMSAT                  
1 37841U 11058D   26157.27188351  .00000385  00000+0  65061-4 0  9991
2 37841  19.9704 125.5359 0011947  84.3565  18.6414 14.11573396756279
PLEIADES 1A             
1 38012U 11076F   26158.53328921  .00000369  00000+0  89212-4 0  9997
2 38012  98.1972 233.7654 0001502  97.0748  26.5702 14.58565441770587
ZIYUAN 1-02C (ZY 1-02C) 
1 38038U 11079A   26158.55320038  .00000391  00000+0  14296-3 0  9995
2 38038  98.4069 226.0628 0006146 348.6814 119.0451 14.38207201757825
ARIRANG-3 (KOMPSAT-3)   
1 38338U 12025B   26158.52082991  .00000531  00000+0  11467-3 0  9993
2 38338  98.1172 116.1479 0006250 134.2565 225.9150 14.62198087749935
EXACTVIEW-1 (ADS-1B)    
1 38709U 12039C   26158.27016691  .00000152  00000+0  84988-4 0  9994
2 38709  98.9766 275.4370 0010623 194.6885 165.3986 14.24981780721298
SPOT 6                  
1 38755U 12047A   26158.52503375  .00000365  00000+0  88318-4 0  9999
2 38755  98.2116 225.9467 0001443  93.2194 266.9170 14.58557689731642
PLEIADES 1B             
1 39019U 12068A   26158.47533133  .00000374  00000+0  90206-4 0  9994
2 39019  98.1942 233.6605 0001570  95.4018 264.7361 14.58555035719436
GOKTURK 2               
1 39030U 12073A   26158.51912905  .00000791  00000+0  12313-3 0  9991
2 39030  97.6825 356.4349 0001933  61.5378 298.6027 14.75534117723086
LANDSAT 8               
1 39084U 13008A   26158.47959569  .00000376  00000+0  93521-4 0  9991
2 39084  98.2302 228.7298 0001468  96.2737 263.8628 14.57112520696487
SARAL                   
1 39086U 13009A   26158.33443962  .00000099  00000+0  52384-4 0  9998
2 39086  98.5558 345.0267 0001265 355.1833   4.9339 14.32853577694199
GAOFEN-1                
1 39150U 13018A   26158.50780627  .00000266  00000+0  45466-4 0  9990
2 39150  97.9092 230.7722 0015937 300.7246  59.2394 14.76526497706811
VNREDSAT 1              
1 39160U 13021B   26158.52599425  .00000655  00000+0  13120-3 0  9994
2 39160  97.9080 212.3129 0001682  89.9085 270.2311 14.64847337698871
ARIRANG-5 (KOMPSAT-5)   
1 39227U 13042A   26158.52225119  .00001912  00000+0  14072-3 0  9991
2 39227  97.6214 345.3583 0004091 145.3924 214.7569 15.04554401702403
SKYSAT-A                
1 39418U 13066C   26158.40278440  .00003486  00000+0  20054-3 0  9996
2 39418  97.3821 208.1118 0021029 352.7974   7.2952 15.12923192687000
DUBAISAT-2              
1 39419U 13066D   26158.52927771  .00004098  00000+0  25488-3 0  9994
2 39419  97.4563 148.9276 0012879  69.6102 290.6509 15.10107552684938
GPM-CORE                
1 39574U 14009C   26158.04569023  .00007403  00000+0  15877-3 0  9997
2 39574  64.9731 342.1053 0012061 269.6323  90.3436 15.45426738696246
SENTINEL-1A             
1 39634U 14016A   26158.56178645  .00000079  00000+0  26392-4 0  9992
2 39634  98.1782 166.2351 0001431  79.6656 280.4705 14.59199828648611
KAZEOSAT 1              
1 39731U 14024A   26158.51598840  .00000236  00000+0  84840-4 0  9994
2 39731  98.3202 231.2034 0001494  74.9998 285.1357 14.42076685637165
ALOS-2                  
1 39766U 14029A   26158.53530014  .00001466  00000+0  20312-3 0  9997
2 39766  97.9210 255.8375 0001668  90.1419 269.9984 14.79469439650151
KAZEOSAT 2              
1 40010U 14033A   26158.53011924  .00001222  00000+0  14748-3 0  9996
2 40010  97.5413 358.6520 0008820   2.3815 357.7441 14.85461684647524
